{"type": "FeatureCollection", "features": [ {"type": "Feature", "properties": {"norad_id": 66345, "name": "STARLINK-35440", "group": "last-30-days", "lat": -32.59444986925866, "lon": -97.27351547517767, "alt_km": 425.9174455057164, "timestamp": "2025-12-03T08:58:44.775854+00:00", "meta": {"OBJECT_NAME": "STARLINK-35440", "OBJECT_ID": "2025-253AC", "EPOCH": "2025-12-03T04:00:01.998720", "MEAN_MOTION": 15.48578082, "ECCENTRICITY": 7.47e-05, "INCLINATION": 43.0005, "RA_OF_ASC_NODE": 40.6103, "ARG_OF_PERICENTER": 254.0946, "MEAN_ANOMALY": 260.5796, "EPHEMERIS_TYPE": 0, "CLASSIFICATION_TYPE": "U", "NORAD_CAT_ID": 66345, "ELEMENT_SET_NO": 999, "REV_AT_EPOCH": 539, "BSTAR": -0.042777, "MEAN_MOTION_DOT": -0.02077287, "MEAN_MOTION_DDOT": 0}, "tle": {"line1": "1 66345U 25253AC  25337.16668980 -.02077287  00000+0 -42777-1 0  9997", "line2": "2 66345  43.0005  40.6103 0000747 254.0946 260.5796 15.48578082  5390"}}, "geometry": {"type": "Point", "coordinates": [-97.27351547517767, -32.59444986925866]}}, {"type": "Feature", "properties": {"norad_id": 66346, "name": "STARLINK-35482", "group": "last-30-days", "lat": -35.14671757050011, "lon": -91.53746353121923, "alt_km": 417.12532820045453, "timestamp": "2025-12-03T08:58:44.775865+00:00", "meta": {"OBJECT_NAME": "STARLINK-35482", "OBJECT_ID": "2025-253AD", "EPOCH": "2025-12-03T04:52:02.599968", "MEAN_MOTION": 15.50595859, "ECCENTRICITY": 0.0001279, "INCLINATION": 42.9992, "RA_OF_ASC_NODE": 40.3922, "ARG_OF_PERICENTER": 264.1211, "MEAN_ANOMALY": 95.9503, "EPHEMERIS_TYPE": 0, "CLASSIFICATION_TYPE": "U", "NORAD_CAT_ID": 66346, "ELEMENT_SET_NO": 999, "REV_AT_EPOCH": 545, "BSTAR": 0.0016158, "MEAN_MOTION_DOT": 0.00095675, "MEAN_MOTION_DDOT": 0}, "tle": {"line1": "1 66346U 25253AD  25337.20280787  .00095675  00000+0  16158-2 0  9990", "line2": "2 66346  42.9992  40.3922 0001279 264.1211  95.9503 15.50595859  5455"}}, "geometry": {"type": "Point", "coordinates": [-91.53746353121923, -35.14671757050011]}}, {"type": "Feature", "properties": {"norad_id": 66347, "name": "STARLINK-35438", "group": "last-30-days", "lat": -37.12396741696701, "lon": -86.30353754320208, "alt_km": 414.0995803180149, "timestamp": "2025-12-03T08:58:44.775876+00:00", "meta": {"OBJECT_NAME": "STARLINK-35438", "OBJECT_ID": "2025-253AE", "EPOCH": "2025-12-02T11:50:43.167552", "MEAN_MOTION": 15.50748022, "ECCENTRICITY": 0.00051686, "INCLINATION": 43.0001, "RA_OF_ASC_NODE": 44.5284, "ARG_OF_PERICENTER": 271.7306, "MEAN_ANOMALY": 88.2962, "EPHEMERIS_TYPE": 0, "CLASSIFICATION_TYPE": "U", "NORAD_CAT_ID": 66347, "ELEMENT_SET_NO": 999, "REV_AT_EPOCH": 534, "BSTAR": 0.0023229767, "MEAN_MOTION_DOT": 0.00139273, "MEAN_MOTION_DDOT": 0}, "tle": {"line1": "1 66347U 25253AE  25336.49355518  .00139273  00000+0  23230-2 0  9998", "line2": "2 66347  43.0001  44.5284 0005168 271.7306  88.2962 15.50748022  5340"}}, "geometry": {"type": "Point", "coordinates": [-86.30353754320208, -37.12396741696701]}}, {"type": "Feature", "properties": {"norad_id": 66348, "name": "STARLINK-35849", "group": "last-30-days", "lat": 42.797087438251864, "lon": 5.514101865279749, "alt_km": 370.8511779989167, "timestamp": "2025-12-03T08:58:44.775887+00:00", "meta": {"OBJECT_NAME": "STARLINK-35849", "OBJECT_ID": "2025-254A", "EPOCH": "2025-12-03T04:00:01.998720", "MEAN_MOTION": 15.64564977, "ECCENTRICITY": 0.0001033, "INCLINATION": 53.1595, "RA_OF_ASC_NODE": 322.5652, "ARG_OF_PERICENTER": 93.1704, "MEAN_ANOMALY": 236.3024, "EPHEMERIS_TYPE": 0, "CLASSIFICATION_TYPE": "U", "NORAD_CAT_ID": 66348, "ELEMENT_SET_NO": 999, "REV_AT_EPOCH": 538, "BSTAR": -0.024031, "MEAN_MOTION_DOT": -0.02068806, "MEAN_MOTION_DDOT": 0}, "tle": {"line1": "1 66348U 25254A   25337.16668980 -.02068806  00000+0 -24031-1 0  9991", "line2": "2 66348  53.1595 322.5652 0001033  93.1704 236.3024 15.64564977  5383"}}, "geometry": {"type": "Point", "coordinates": [5.514101865279749, 42.797087438251864]}}, {"type": "Feature", "properties": {"norad_id": 66349, "name": "STARLINK-35848", "group": "last-30-days", "lat": 43.88401869303498, "lon": 7.690290133818243, "alt_km": 370.63711074404455, "timestamp": "2025-12-03T08:58:44.775900+00:00", "meta": {"OBJECT_NAME": "STARLINK-35848", "OBJECT_ID": "2025-254B", "EPOCH": "2025-12-03T04:00:01.998720", "MEAN_MOTION": 15.64568032, "ECCENTRICITY": 0.0001094, "INCLINATION": 53.1597, "RA_OF_ASC_NODE": 322.5606, "ARG_OF_PERICENTER": 92.7897, "MEAN_ANOMALY": 238.6022, "EPHEMERIS_TYPE": 0, "CLASSIFICATION_TYPE": "U", "NORAD_CAT_ID": 66349, "ELEMENT_SET_NO": 999, "REV_AT_EPOCH": 538, "BSTAR": -0.024131, "MEAN_MOTION_DOT": -0.02076566, "MEAN_MOTION_DDOT": 0}, "tle": {"line1": "1 66349U 25254B   25337.16668980 -.02076566  00000+0 -24131-1 0  9995", "line2": "2 66349  53.1597 322.5606 0001094  92.7897 238.6022 15.64568032  5389"}}, "geometry": {"type": "Point", "coordinates": [7.690290133818243, 43.88401869303498]}}, {"type": "Feature", "properties": {"norad_id": 66350, "name": "STARLINK-35829", "group": "last-30-days", "lat": 44.92438945191853, "lon": 9.939063808327091, "alt_km": 370.42193343913095, "timestamp": "2025-12-03T08:58:44.775911+00:00", "meta": {"OBJECT_NAME": "STARLINK-35829", "OBJECT_ID": "2025-254C", "EPOCH": "2025-12-03T04:00:01.998720", "MEAN_MOTION": 15.64568883, "ECCENTRICITY": 0.000115, "INCLINATION": 53.1595, "RA_OF_ASC_NODE": 322.5563, "ARG_OF_PERICENTER": 91.8191, "MEAN_ANOMALY": 241.4851, "EPHEMERIS_TYPE": 0, "CLASSIFICATION_TYPE": "U", "NORAD_CAT_ID": 66350, "ELEMENT_SET_NO": 999, "REV_AT_EPOCH": 538, "BSTAR": -0.024096, "MEAN_MOTION_DOT": -0.0207406, "MEAN_MOTION_DDOT": 0}, "tle": {"line1": "1 66350U 25254C   25337.16668980 -.02074060  00000+0 -24096-1 0  9994", "line2": "2 66350  53.1595 322.5563 0001150  91.8191 241.4851 15.64568883  5387"}}, "geometry": {"type": "Point", "coordinates": [9.939063808327091, 44.92438945191853]}}, {"type": "Feature", "properties": {"norad_id": 66351, "name": "STARLINK-35828", "group": "last-30-days", "lat": 45.92954485530473, "lon": 12.296384666841611, "alt_km": 370.38063640123255, "timestamp": "2025-12-03T08:58:44.775922+00:00", "meta": {"OBJECT_NAME": "STARLINK-35828", "OBJECT_ID": "2025-254D", "EPOCH": "2025-12-03T04:00:01.998720", "MEAN_MOTION": 15.64517329, "ECCENTRICITY": 0.0001043, "INCLINATION": 53.1592, "RA_OF_ASC_NODE": 322.5528, "ARG_OF_PERICENTER": 87.1421, "MEAN_ANOMALY": 248.1244, "EPHEMERIS_TYPE": 0, "CLASSIFICATION_TYPE": "U", "NORAD_CAT_ID": 66351, "ELEMENT_SET_NO": 999, "REV_AT_EPOCH": 535, "BSTAR": -0.023518, "MEAN_MOTION_DOT": -0.02026783, "MEAN_MOTION_DDOT": 0}, "tle": {"line1": "1 66351U 25254D   25337.16668980 -.02026783  00000+0 -23518-1 0  9992", "line2": "2 66351  53.1592 322.5528 0001043  87.1421 248.1244 15.64517329  5357"}}, "geometry": {"type": "Point", "coordinates": [12.296384666841611, 45.92954485530473]}}, {"type": "Feature", "properties": {"norad_id": 66352, "name": "STARLINK-35850", "group": "last-30-days", "lat": 46.868310808254435, "lon": 14.693464424243238, "alt_km": 370.1637387195142, "timestamp": "2025-12-03T08:58:44.775934+00:00", "meta": {"OBJECT_NAME": "STARLINK-35850", "OBJECT_ID": "2025-254E", "EPOCH": "2025-12-03T04:00:01.998720", "MEAN_MOTION": 15.64564955, "ECCENTRICITY": 0.0001083, "INCLINATION": 53.1594, "RA_OF_ASC_NODE": 322.5485, "ARG_OF_PERICENTER": 93.7415, "MEAN_ANOMALY": 243.3994, "EPHEMERIS_TYPE": 0, "CLASSIFICATION_TYPE": "U", "NORAD_CAT_ID": 66352, "ELEMENT_SET_NO": 999, "REV_AT_EPOCH": 533, "BSTAR": -0.024038, "MEAN_MOTION_DOT": -0.02069401, "MEAN_MOTION_DDOT": 0}, "tle": {"line1": "1 66352U 25254E   25337.16668980 -.02069401  00000+0 -24038-1 0  9995", "line2": "2 66352  53.1594 322.5485 0001083  93.7415 243.3994 15.64564955  5336"}}, "geometry": {"type": "Point", "coordinates": [14.693464424243238, 46.868310808254435]}}, {"type": "Feature", "properties": {"norad_id": 66353, "name": "STARLINK-35869", "group": "last-30-days", "lat": 47.763810869103686, "lon": 17.198343876115686, "alt_km": 369.9961591986421, "timestamp": "2025-12-03T08:58:44.775945+00:00", "meta": {"OBJECT_NAME": "STARLINK-35869", "OBJECT_ID": "2025-254F", "EPOCH": "2025-12-03T04:00:01.998720", "MEAN_MOTION": 15.64569404, "ECCENTRICITY": 0.0001075, "INCLINATION": 53.1598, "RA_OF_ASC_NODE": 322.5439, "ARG_OF_PERICENTER": 88.1697, "MEAN_ANOMALY": 250.8872, "EPHEMERIS_TYPE": 0, "CLASSIFICATION_TYPE": "U", "NORAD_CAT_ID": 66353, "ELEMENT_SET_NO": 999, "REV_AT_EPOCH": 538, "BSTAR": -0.024117, "MEAN_MOTION_DOT": -0.02075616, "MEAN_MOTION_DDOT": 0}, "tle": {"line1": "1 66353U 25254F   25337.16668980 -.02075616  00000+0 -24117-1 0  9999", "line2": "2 66353  53.1598 322.5439 0001075  88.1697 250.8872 15.64569404  5388"}}, "geometry": {"type": "Point", "coordinates": [17.198343876115686, 47.763810869103686]}}, {"type": "Feature", "properties": {"norad_id": 66354, "name": "STARLINK-35895", "group": "last-30-days", "lat": -52.89679552250948, "lon": -135.73800879343233, "alt_km": 424.109300555765, "timestamp": "2025-12-03T08:58:44.775955+00:00", "meta": {"OBJECT_NAME": "STARLINK-35895", "OBJECT_ID": "2025-254G", "EPOCH": "2025-12-03T04:00:01.998720", "MEAN_MOTION": 15.49721368, "ECCENTRICITY": 0.0001386, "INCLINATION": 53.1591, "RA_OF_ASC_NODE": 322.8501, "ARG_OF_PERICENTER": 89.1227, "MEAN_ANOMALY": 98.4382, "EPHEMERIS_TYPE": 0, "CLASSIFICATION_TYPE": "U", "NORAD_CAT_ID": 66354, "ELEMENT_SET_NO": 999, "REV_AT_EPOCH": 538, "BSTAR": -0.012376, "MEAN_MOTION_DOT": -0.00644134, "MEAN_MOTION_DDOT": 0}, "tle": {"line1": "1 66354U 25254G   25337.16668980 -.00644134  00000+0 -12376-1 0  9999", "line2": "2 66354  53.1591 322.8501 0001386  89.1227  98.4382 15.49721368  5384"}}, "geometry": {"type": "Point", "coordinates": [-135.73800879343233, -52.89679552250948]}}]}